[{"OBJECT_NAME":"ONEWEB-0235","OBJECT_ID":"2021-045E","EPOCH":"2025-08-26T17:02:56.692032","MEAN_MOTION":13.15547134,"ECCENTRICITY":0.00017352,"INCLINATION":87.9064,"RA_OF_ASC_NODE":317.9344,"ARG_OF_PERICENTER":80.9655,"MEAN_ANOMALY":279.1672,"EPHEMERIS_TYPE":0,"CLASSIFICATION_TYPE":"U","NORAD_CAT_ID":48771,"ELEMENT_SET_NO":999,"REV_AT_EPOCH":20566,"BSTAR":-0.0003952127,"MEAN_MOTION_DOT":-1.36e-6,"MEAN_MOTION_DDOT":0},{"OBJECT_NAME":"ONEWEB-0242","OBJECT_ID":"2021-045F","EPOCH":"2025-08-26T22:22:23.607552","MEAN_MOTION":13.1554841,"ECCENTRICITY":0.00019557,"INCLINATION":87.907,"RA_OF_ASC_NODE":317.8749,"ARG_OF_PERICENTER":92.4113,"MEAN_ANOMALY":267.7241,"EPHEMERIS_TYPE":0,"CLASSIFICATION_TYPE":"U","NORAD_CAT_ID":48772,"ELEMENT_SET_NO":999,"REV_AT_EPOCH":20573,"BSTAR":-0.00015214283,"MEAN_MOTION_DOT":-4.4e-7,"MEAN_MOTION_DDOT":0},{"OBJECT_NAME":"ONEWEB-0241","OBJECT_ID":"2021-045G","EPOCH":"2025-08-26T22:04:07.944960","MEAN_MOTION":13.15548063,"ECCENTRICITY":0.00014284,"INCLINATION":87.9054,"RA_OF_ASC_NODE":317.9276,"ARG_OF_PERICENTER":94.51,"MEAN_ANOMALY":265.6193,"EPHEMERIS_TYPE":0,"CLASSIFICATION_TYPE":"U","NORAD_CAT_ID":48773,"ELEMENT_SET_NO":999,"REV_AT_EPOCH":20564,"BSTAR":0.00044826133,"MEAN_MOTION_DOT":1.82e-6,"MEAN_MOTION_DDOT":0},{"OBJECT_NAME":"ONEWEB-0243","OBJECT_ID":"2021-045H","EPOCH":"2025-08-26T17:21:12.407328","MEAN_MOTION":13.15547852,"ECCENTRICITY":0.00018326,"INCLINATION":87.9074,"RA_OF_ASC_NODE":317.9658,"ARG_OF_PERICENTER":84.372,"MEAN_ANOMALY":275.7619,"EPHEMERIS_TYPE":0,"CLASSIFICATION_TYPE":"U","NORAD_CAT_ID":48774,"ELEMENT_SET_NO":999,"REV_AT_EPOCH":20564,"BSTAR":-0.0002077791,"MEAN_MOTION_DOT":-6.5e-7,"MEAN_MOTION_DDOT":0},{"OBJECT_NAME":"ONEWEB-0222","OBJECT_ID":"2021-045J","EPOCH":"2025-08-26T22:25:47.592768","MEAN_MOTION":13.15548541,"ECCENTRICITY":0.00017406,"INCLINATION":87.9066,"RA_OF_ASC_NODE":317.8772,"ARG_OF_PERICENTER":96.2572,"MEAN_ANOMALY":263.8757,"EPHEMERIS_TYPE":0,"CLASSIFICATION_TYPE":"U","NORAD_CAT_ID":48775,"ELEMENT_SET_NO":999,"REV_AT_EPOCH":20571,"BSTAR":-0.00070849243,"MEAN_MOTION_DOT":-2.54e-6,"MEAN_MOTION_DDOT":0},{"OBJECT_NAME":"ONEWEB-0244","OBJECT_ID":"2021-045K","EPOCH":"2025-08-26T15:45:22.341312","MEAN_MOTION":13.155472,"ECCENTRICITY":0.00020066,"INCLINATION":87.9071,"RA_OF_ASC_NODE":317.9136,"ARG_OF_PERICENTER":93.1077,"MEAN_ANOMALY":267.0283,"EPHEMERIS_TYPE":0,"CLASSIFICATION_TYPE":"U","NORAD_CAT_ID":48776,"ELEMENT_SET_NO":999,"REV_AT_EPOCH":20624,"BSTAR":0.00016738722,"MEAN_MOTION_DOT":7.6e-7,"MEAN_MOTION_DDOT":0},{"OBJECT_NAME":"ONEWEB-0247","OBJECT_ID":"2021-045L","EPOCH":"2025-08-26T17:30:20.865024","MEAN_MOTION":13.15549181,"ECCENTRICITY":0.00017551,"INCLINATION":87.9058,"RA_OF_ASC_NODE":317.9703,"ARG_OF_PERICENTER":67.696,"MEAN_ANOMALY":292.4356,"EPHEMERIS_TYPE":0,"CLASSIFICATION_TYPE":"U","NORAD_CAT_ID":48777,"ELEMENT_SET_NO":999,"REV_AT_EPOCH":20569,"BSTAR":-0.00011719311,"MEAN_MOTION_DOT":-3.1e-7,"MEAN_MOTION_DDOT":0},{"OBJECT_NAME":"ONEWEB-0245","OBJECT_ID":"2021-045M","EPOCH":"2025-08-26T17:23:29.355648","MEAN_MOTION":13.15548009,"ECCENTRICITY":0.00016984,"INCLINATION":87.906,"RA_OF_ASC_NODE":317.9346,"ARG_OF_PERICENTER":99.3084,"MEAN_ANOMALY":260.8238,"EPHEMERIS_TYPE":0,"CLASSIFICATION_TYPE":"U","NORAD_CAT_ID":48778,"ELEMENT_SET_NO":999,"REV_AT_EPOCH":20566,"BSTAR":-0.00026062122,"MEAN_MOTION_DOT":-8.5e-7,"MEAN_MOTION_DDOT":0},{"OBJECT_NAME":"ONEWEB-0229","OBJECT_ID":"2021-045N","EPOCH":"2025-08-26T17:16:38.504640","MEAN_MOTION":13.15548997,"ECCENTRICITY":0.00019574,"INCLINATION":87.9061,"RA_OF_ASC_NODE":317.9353,"ARG_OF_PERICENTER":93.4946,"MEAN_ANOMALY":266.6408,"EPHEMERIS_TYPE":0,"CLASSIFICATION_TYPE":"U","NORAD_CAT_ID":48779,"ELEMENT_SET_NO":999,"REV_AT_EPOCH":20569,"BSTAR":-0.00021617499,"MEAN_MOTION_DOT":-6.9e-7,"MEAN_MOTION_DDOT":0},{"OBJECT_NAME":"ONEWEB-0228","OBJECT_ID":"2021-045P","EPOCH":"2025-08-26T16:15:14.171040","MEAN_MOTION":13.15549189,"ECCENTRICITY":0.0001841,"INCLINATION":87.9067,"RA_OF_ASC_NODE":317.9184,"ARG_OF_PERICENTER":94.4345,"MEAN_ANOMALY":265.6995,"EPHEMERIS_TYPE":0,"CLASSIFICATION_TYPE":"U","NORAD_CAT_ID":48780,"ELEMENT_SET_NO":999,"REV_AT_EPOCH":20560,"BSTAR":0.00041913591,"MEAN_MOTION_DOT":1.71e-6,"MEAN_MOTION_DDOT":0},{"OBJECT_NAME":"ONEWEB-0232","OBJECT_ID":"2021-045Q","EPOCH":"2025-08-26T17:28:03.095040","MEAN_MOTION":13.15548094,"ECCENTRICITY":0.00019054,"INCLINATION":87.9062,"RA_OF_ASC_NODE":317.9014,"ARG_OF_PERICENTER":97.3834,"MEAN_ANOMALY":262.7513,"EPHEMERIS_TYPE":0,"CLASSIFICATION_TYPE":"U","NORAD_CAT_ID":48781,"ELEMENT_SET_NO":999,"REV_AT_EPOCH":20593,"BSTAR":-5.0420794e-5,"MEAN_MOTION_DOT":-6.0e-8,"MEAN_MOTION_DDOT":0},{"OBJECT_NAME":"ONEWEB-0231","OBJECT_ID":"2021-045R","EPOCH":"2025-08-26T22:24:39.882816","MEAN_MOTION":13.15548397,"ECCENTRICITY":0.00018407,"INCLINATION":87.9058,"RA_OF_ASC_NODE":317.913,"ARG_OF_PERICENTER":89.3038,"MEAN_ANOMALY":270.8303,"EPHEMERIS_TYPE":0,"CLASSIFICATION_TYPE":"U","NORAD_CAT_ID":48782,"ELEMENT_SET_NO":999,"REV_AT_EPOCH":20565,"BSTAR":-0.00015915714,"MEAN_MOTION_DOT":-4.7e-7,"MEAN_MOTION_DDOT":0},{"OBJECT_NAME":"ONEWEB-0234","OBJECT_ID":"2021-045S","EPOCH":"2025-08-26T16:01:10.231392","MEAN_MOTION":13.15546546,"ECCENTRICITY":0.00018124,"INCLINATION":87.9065,"RA_OF_ASC_NODE":317.9341,"ARG_OF_PERICENTER":126.3272,"MEAN_ANOMALY":233.8025,"EPHEMERIS_TYPE":0,"CLASSIFICATION_TYPE":"U","NORAD_CAT_ID":48783,"ELEMENT_SET_NO":999,"REV_AT_EPOCH":20575,"BSTAR":0.0003272321,"MEAN_MOTION_DOT":1.36e-6,"MEAN_MOTION_DDOT":0},{"OBJECT_NAME":"ONEWEB-0238","OBJECT_ID":"2021-045T","EPOCH":"2025-08-26T16:01:33.091968","MEAN_MOTION":13.15547809,"ECCENTRICITY":0.00018571,"INCLINATION":87.9061,"RA_OF_ASC_NODE":317.9305,"ARG_OF_PERICENTER":109.4106,"MEAN_ANOMALY":250.7225,"EPHEMERIS_TYPE":0,"CLASSIFICATION_TYPE":"U","NORAD_CAT_ID":48784,"ELEMENT_SET_NO":999,"REV_AT_EPOCH":20565,"BSTAR":0.00033135864,"MEAN_MOTION_DOT":1.38e-6,"MEAN_MOTION_DDOT":0},{"OBJECT_NAME":"ONEWEB-0240","OBJECT_ID":"2021-045U","EPOCH":"2025-08-26T16:32:07.920384","MEAN_MOTION":13.15547099,"ECCENTRICITY":0.00015535,"INCLINATION":87.9068,"RA_OF_ASC_NODE":317.9098,"ARG_OF_PERICENTER":95.1632,"MEAN_ANOMALY":264.9676,"EPHEMERIS_TYPE":0,"CLASSIFICATION_TYPE":"U","NORAD_CAT_ID":48785,"ELEMENT_SET_NO":999,"REV_AT_EPOCH":20568,"BSTAR":0.00021587976,"MEAN_MOTION_DOT":9.4e-7,"MEAN_MOTION_DDOT":0},{"OBJECT_NAME":"ONEWEB-0246","OBJECT_ID":"2021-045V","EPOCH":"2025-08-26T21:52:43.657824","MEAN_MOTION":13.15547798,"ECCENTRICITY":0.00019265,"INCLINATION":87.907,"RA_OF_ASC_NODE":317.8778,"ARG_OF_PERICENTER":92.9822,"MEAN_ANOMALY":267.1529,"EPHEMERIS_TYPE":0,"CLASSIFICATION_TYPE":"U","NORAD_CAT_ID":48786,"ELEMENT_SET_NO":999,"REV_AT_EPOCH":20558,"BSTAR":0.0002358063,"MEAN_MOTION_DOT":1.02e-6,"MEAN_MOTION_DDOT":0},{"OBJECT_NAME":"ONEWEB-0210","OBJECT_ID":"2021-045W","EPOCH":"2025-08-26T15:47:39.086592","MEAN_MOTION":13.15547164,"ECCENTRICITY":0.00019901,"INCLINATION":87.9069,"RA_OF_ASC_NODE":317.9275,"ARG_OF_PERICENTER":77.7904,"MEAN_ANOMALY":282.3449,"EPHEMERIS_TYPE":0,"CLASSIFICATION_TYPE":"U","NORAD_CAT_ID":48787,"ELEMENT_SET_NO":999,"REV_AT_EPOCH":20559,"BSTAR":0.00020497602,"MEAN_MOTION_DOT":9.0e-7,"MEAN_MOTION_DDOT":0},{"OBJECT_NAME":"ONEWEB-0214","OBJECT_ID":"2021-045X","EPOCH":"2025-08-26T16:00:11.637504","MEAN_MOTION":13.1555077,"ECCENTRICITY":0.00020917,"INCLINATION":87.9067,"RA_OF_ASC_NODE":317.914,"ARG_OF_PERICENTER":85.781,"MEAN_ANOMALY":274.356,"EPHEMERIS_TYPE":0,"CLASSIFICATION_TYPE":"U","NORAD_CAT_ID":48788,"ELEMENT_SET_NO":999,"REV_AT_EPOCH":20556,"BSTAR":0.00032730162,"MEAN_MOTION_DOT":1.36e-6,"MEAN_MOTION_DDOT":0},{"OBJECT_NAME":"ONEWEB-0221","OBJECT_ID":"2021-045Y","EPOCH":"2025-08-26T16:10:28.994880","MEAN_MOTION":13.15548894,"ECCENTRICITY":0.00017674,"INCLINATION":87.9058,"RA_OF_ASC_NODE":317.9397,"ARG_OF_PERICENTER":92.197,"MEAN_ANOMALY":267.9362,"EPHEMERIS_TYPE":0,"CLASSIFICATION_TYPE":"U","NORAD_CAT_ID":48789,"ELEMENT_SET_NO":999,"REV_AT_EPOCH":20565,"BSTAR":0.0004213102,"MEAN_MOTION_DOT":1.71e-6,"MEAN_MOTION_DDOT":0},{"OBJECT_NAME":"ONEWEB-0213","OBJECT_ID":"2021-045Z","EPOCH":"2025-08-26T15:54:30.192480","MEAN_MOTION":13.15547213,"ECCENTRICITY":0.00018084,"INCLINATION":87.9061,"RA_OF_ASC_NODE":317.9501,"ARG_OF_PERICENTER":89.6884,"MEAN_ANOMALY":270.4453,"EPHEMERIS_TYPE":0,"CLASSIFICATION_TYPE":"U","NORAD_CAT_ID":48790,"ELEMENT_SET_NO":999,"REV_AT_EPOCH":20571,"BSTAR":0.00013940602,"MEAN_MOTION_DOT":6.5e-7,"MEAN_MOTION_DDOT":0},{"OBJECT_NAME":"ONEWEB-0212","OBJECT_ID":"2021-045AA","EPOCH":"2025-08-26T17:10:55.920000","MEAN_MOTION":13.15547147,"ECCENTRICITY":0.00018995,"INCLINATION":87.9064,"RA_OF_ASC_NODE":317.9219,"ARG_OF_PERICENTER":99.5694,"MEAN_ANOMALY":260.5651,"EPHEMERIS_TYPE":0,"CLASSIFICATION_TYPE":"U","NORAD_CAT_ID":48791,"ELEMENT_SET_NO":999,"REV_AT_EPOCH":20571,"BSTAR":-0.0004024116,"MEAN_MOTION_DOT":-1.39e-6,"MEAN_MOTION_DDOT":0},{"OBJECT_NAME":"ONEWEB-0227","OBJECT_ID":"2021-045AB","EPOCH":"2025-08-26T17:09:47.301120","MEAN_MOTION":13.15547452,"ECCENTRICITY":0.00018192,"INCLINATION":87.906,"RA_OF_ASC_NODE":317.9413,"ARG_OF_PERICENTER":95.6618,"MEAN_ANOMALY":264.4719,"EPHEMERIS_TYPE":0,"CLASSIFICATION_TYPE":"U","NORAD_CAT_ID":48792,"ELEMENT_SET_NO":999,"REV_AT_EPOCH":20566,"BSTAR":-0.00036726691,"MEAN_MOTION_DOT":-1.25e-6,"MEAN_MOTION_DDOT":0},{"OBJECT_NAME":"ONEWEB-0226","OBJECT_ID":"2021-045AC","EPOCH":"2025-08-26T17:00:39.696192","MEAN_MOTION":13.15547123,"ECCENTRICITY":0.00019191,"INCLINATION":87.9068,"RA_OF_ASC_NODE":317.9487,"ARG_OF_PERICENTER":87.226,"MEAN_ANOMALY":272.909,"EPHEMERIS_TYPE":0,"CLASSIFICATION_TYPE":"U","NORAD_CAT_ID":48793,"ELEMENT_SET_NO":999,"REV_AT_EPOCH":20563,"BSTAR":-0.00032936001,"MEAN_MOTION_DOT":-1.11e-6,"MEAN_MOTION_DDOT":0}]
